KUIPER-00053            
1 64513U 25134P   25213.80801414  .00040285  00000+0  11108-2 0  9994
2 64513  51.8753 140.9895 0001829 233.6430 126.4388 15.36714065  6834
KUIPER-00054            
1 64514U 25134Q   25212.96743262  .00032626  00000+0  90984-3 0  9997
2 64514  51.8745 145.1044 0002673 216.6286 143.4518 15.36462086  7161
KUIPER-00055            
1 64515U 25134R   25213.21159059  .00037347  00000+0  10187-2 0  9993
2 64515  51.8776 143.7476 0000455 116.2538 243.8495 15.37086392  7207
KUIPER-00056            
1 64516U 25134S   25213.29839266  .00009476  00000+0  27512-3 0  9990
2 64516  51.8730 143.5683 0002442 238.1794 121.8954 15.36179869  7219
KUIPER-00057            
1 64517U 25134T   25213.38506522  .00015347  00000+0  45383-3 0  9997
2 64517  51.8697 143.3816 0006413 242.9884 117.0447 15.35089117  7223
KUIPER-00058            
1 64518U 25134U   25213.11188900  .00017321  00000+0  49801-3 0  9998
2 64518  51.8709 144.5624 0004387 243.3989 116.6548 15.35887053  7184
KUIPER-00059            
1 64519U 25134V   25213.79873980  .00039692  00000+0  10809-2 0  9992
2 64519  51.8751 140.9277 0001511 154.2143 205.8919 15.37108408  6829
KUIPER-00060            
1 64520U 25134W   25213.80432471  .00049603  00000+0  13548-2 0  9998
2 64520  51.8751 140.9672 0001819 197.8152 162.2771 15.36915239  6834
